CCSDS_OMM_VERS = 2.0
CREATION_DATE  = 
ORIGINATOR     = 

OBJECT_NAME    = STARLINK-35657
OBJECT_ID      = 2025-257V
CENTER_NAME    = EARTH
REF_FRAME      = TEME
TIME_SYSTEM    = UTC
MEAN_ELEMENT_THEORY = SGP/SGP4

EPOCH          = 2025-11-28T14:00:01.999872
MEAN_MOTION    = 15.52661265
ECCENTRICITY   = .00012779
INCLINATION    = 53.1593
RA_OF_ASC_NODE = 331.4837
ARG_OF_PERICENTER = 66.3911
MEAN_ANOMALY   = 3.2264

EPHEMERIS_TYPE = 0
CLASSIFICATION_TYPE = U
NORAD_CAT_ID   = 66399
ELEMENT_SET_NO = 999
REV_AT_EPOCH   = 422
BSTAR          = -.36450753E-1
MEAN_MOTION_DOT = -.2038446E-1
MEAN_MOTION_DDOT = 0

CCSDS_OMM_VERS = 2.0
CREATION_DATE  = 
ORIGINATOR     = 

OBJECT_NAME    = STARLINK-35667
OBJECT_ID      = 2025-257W
CENTER_NAME    = EARTH
REF_FRAME      = TEME
TIME_SYSTEM    = UTC
MEAN_ELEMENT_THEORY = SGP/SGP4

EPOCH          = 2025-11-28T14:00:01.999872
MEAN_MOTION    = 15.52662375
ECCENTRICITY   = .00012698
INCLINATION    = 53.1585
RA_OF_ASC_NODE = 331.4749
ARG_OF_PERICENTER = 60.7618
MEAN_ANOMALY   = 12.6882

EPHEMERIS_TYPE = 0
CLASSIFICATION_TYPE = U
NORAD_CAT_ID   = 66400
ELEMENT_SET_NO = 999
REV_AT_EPOCH   = 422
BSTAR          = -.3644046E-1
MEAN_MOTION_DOT = -.2038002E-1
MEAN_MOTION_DDOT = 0

CCSDS_OMM_VERS = 2.0
CREATION_DATE  = 
ORIGINATOR     = 

OBJECT_NAME    = STARLINK-35668
OBJECT_ID      = 2025-257X
CENTER_NAME    = EARTH
REF_FRAME      = TEME
TIME_SYSTEM    = UTC
MEAN_ELEMENT_THEORY = SGP/SGP4

EPOCH          = 2025-11-28T14:00:01.999872
MEAN_MOTION    = 15.52662065
ECCENTRICITY   = .00012377
INCLINATION    = 53.1584
RA_OF_ASC_NODE = 331.4713
ARG_OF_PERICENTER = 61.2518
MEAN_ANOMALY   = 14.1150

EPHEMERIS_TYPE = 0
CLASSIFICATION_TYPE = U
NORAD_CAT_ID   = 66401
ELEMENT_SET_NO = 999
REV_AT_EPOCH   = 422
BSTAR          = -.36428079E-1
MEAN_MOTION_DOT = -.2037344E-1
MEAN_MOTION_DDOT = 0

CCSDS_OMM_VERS = 2.0
CREATION_DATE  = 
ORIGINATOR     = 

OBJECT_NAME    = STARLINK-35644
OBJECT_ID      = 2025-257Y
CENTER_NAME    = EARTH
REF_FRAME      = TEME
TIME_SYSTEM    = UTC
MEAN_ELEMENT_THEORY = SGP/SGP4

EPOCH          = 2025-11-28T14:00:01.999872
MEAN_MOTION    = 15.52664793
ECCENTRICITY   = .00012379
INCLINATION    = 53.1587
RA_OF_ASC_NODE = 331.4791
ARG_OF_PERICENTER = 61.9681
MEAN_ANOMALY   = 9.5639

EPHEMERIS_TYPE = 0
CLASSIFICATION_TYPE = U
NORAD_CAT_ID   = 66402
ELEMENT_SET_NO = 999
REV_AT_EPOCH   = 422
BSTAR          = -.36518379E-1
MEAN_MOTION_DOT = -.2042031E-1
MEAN_MOTION_DDOT = 0

CCSDS_OMM_VERS = 2.0
CREATION_DATE  = 
ORIGINATOR     = 

OBJECT_NAME    = STARLINK-35602
OBJECT_ID      = 2025-257Z
CENTER_NAME    = EARTH
REF_FRAME      = TEME
TIME_SYSTEM    = UTC
MEAN_ELEMENT_THEORY = SGP/SGP4

EPOCH          = 2025-11-28T14:00:01.999872
MEAN_MOTION    = 15.52660491
ECCENTRICITY   = .00012648
INCLINATION    = 53.1586
RA_OF_ASC_NODE = 331.4674
ARG_OF_PERICENTER = 61.9478
MEAN_ANOMALY   = 15.3363

EPHEMERIS_TYPE = 0
CLASSIFICATION_TYPE = U
NORAD_CAT_ID   = 66403
ELEMENT_SET_NO = 999
REV_AT_EPOCH   = 422
BSTAR          = -.36392664E-1
MEAN_MOTION_DOT = -.2035488E-1
MEAN_MOTION_DDOT = 0

CCSDS_OMM_VERS = 2.0
CREATION_DATE  = 
ORIGINATOR     = 

OBJECT_NAME    = STARLINK-35691
OBJECT_ID      = 2025-257AA
CENTER_NAME    = EARTH
REF_FRAME      = TEME
TIME_SYSTEM    = UTC
MEAN_ELEMENT_THEORY = SGP/SGP4

EPOCH          = 2025-11-28T14:00:01.999872
MEAN_MOTION    = 15.52660488
ECCENTRICITY   = .00012505
INCLINATION    = 53.1584
RA_OF_ASC_NODE = 331.4635
ARG_OF_PERICENTER = 62.9868
MEAN_ANOMALY   = 16.2132

EPHEMERIS_TYPE = 0
CLASSIFICATION_TYPE = U
NORAD_CAT_ID   = 66404
ELEMENT_SET_NO = 999
REV_AT_EPOCH   = 422
BSTAR          = -.36359999E-1
MEAN_MOTION_DOT = -.2033848E-1
MEAN_MOTION_DDOT = 0

CCSDS_OMM_VERS = 2.0
CREATION_DATE  = 
ORIGINATOR     = 

OBJECT_NAME    = STARLINK-35683
OBJECT_ID      = 2025-257AB
CENTER_NAME    = EARTH
REF_FRAME      = TEME
TIME_SYSTEM    = UTC
MEAN_ELEMENT_THEORY = SGP/SGP4

EPOCH          = 2025-11-28T14:00:01.999872
MEAN_MOTION    = 15.52660664
ECCENTRICITY   = .00012528
INCLINATION    = 53.1585
RA_OF_ASC_NODE = 331.4589
ARG_OF_PERICENTER = 62.3545
MEAN_ANOMALY   = 18.7638

EPHEMERIS_TYPE = 0
CLASSIFICATION_TYPE = U
NORAD_CAT_ID   = 66405
ELEMENT_SET_NO = 999
REV_AT_EPOCH   = 406
BSTAR          = -.36395281E-1
MEAN_MOTION_DOT = -.2035623E-1
MEAN_MOTION_DDOT = 0

CCSDS_OMM_VERS = 2.0
CREATION_DATE  = 
ORIGINATOR     = 

OBJECT_NAME    = STARLINK-34840
OBJECT_ID      = 2025-257AC
CENTER_NAME    = EARTH
REF_FRAME      = TEME
TIME_SYSTEM    = UTC
MEAN_ELEMENT_THEORY = SGP/SGP4

EPOCH          = 2025-11-28T14:00:01.999872
MEAN_MOTION    = 15.52661855
ECCENTRICITY   = .00013073
INCLINATION    = 53.1591
RA_OF_ASC_NODE = 331.4468
ARG_OF_PERICENTER = 62.6579
MEAN_ANOMALY   = 24.2087

EPHEMERIS_TYPE = 0
CLASSIFICATION_TYPE = U
NORAD_CAT_ID   = 66406
ELEMENT_SET_NO = 999
REV_AT_EPOCH   = 416
BSTAR          = -.36406602E-1
MEAN_MOTION_DOT = -.2036299E-1
MEAN_MOTION_DDOT = 0

CCSDS_OMM_VERS = 2.0
CREATION_DATE  = 
ORIGINATOR     = 

OBJECT_NAME    = STARLINK-35686
OBJECT_ID      = 2025-257AD
CENTER_NAME    = EARTH
REF_FRAME      = TEME
TIME_SYSTEM    = UTC
MEAN_ELEMENT_THEORY = SGP/SGP4

EPOCH          = 2025-11-28T14:00:01.999872
MEAN_MOTION    = 15.52659452
ECCENTRICITY   = .0001304
INCLINATION    = 53.1587
RA_OF_ASC_NODE = 331.4547
ARG_OF_PERICENTER = 62.4777
MEAN_ANOMALY   = 20.5560

EPHEMERIS_TYPE = 0
CLASSIFICATION_TYPE = U
NORAD_CAT_ID   = 66407
ELEMENT_SET_NO = 999
REV_AT_EPOCH   = 422
BSTAR          = -.36322444E-1
MEAN_MOTION_DOT = -.2031936E-1
MEAN_MOTION_DDOT = 0

CCSDS_OMM_VERS = 2.0
CREATION_DATE  = 
ORIGINATOR     = 

OBJECT_NAME    = STARLINK-35679
OBJECT_ID      = 2025-257AE
CENTER_NAME    = EARTH
REF_FRAME      = TEME
TIME_SYSTEM    = UTC
MEAN_ELEMENT_THEORY = SGP/SGP4

EPOCH          = 2025-11-28T14:00:01.999872
MEAN_MOTION    = 15.52663282
ECCENTRICITY   = .00012528
INCLINATION    = 53.1589
RA_OF_ASC_NODE = 331.4520
ARG_OF_PERICENTER = 59.7362
MEAN_ANOMALY   = 25.2134

EPHEMERIS_TYPE = 0
CLASSIFICATION_TYPE = U
NORAD_CAT_ID   = 66408
ELEMENT_SET_NO = 999
REV_AT_EPOCH   = 422
BSTAR          = -.36435049E-1
MEAN_MOTION_DOT = -.2037781E-1
MEAN_MOTION_DDOT = 0

CCSDS_OMM_VERS = 2.0
CREATION_DATE  = 
ORIGINATOR     = 

OBJECT_NAME    = CHUTIAN-2 A
OBJECT_ID      = 2025-256A
CENTER_NAME    = EARTH
REF_FRAME      = TEME
TIME_SYSTEM    = UTC
MEAN_ELEMENT_THEORY = SGP/SGP4

EPOCH          = 2025-11-28T15:32:44.385216
MEAN_MOTION    = 14.49908140
ECCENTRICITY   = .00130028
INCLINATION    = 98.2783
RA_OF_ASC_NODE = 37.6588
ARG_OF_PERICENTER = 221.1597
MEAN_ANOMALY   = 138.8618

EPHEMERIS_TYPE = 0
CLASSIFICATION_TYPE = U
NORAD_CAT_ID   = 66409
ELEMENT_SET_NO = 999
REV_AT_EPOCH   = 283
BSTAR          = .23706829E-4
MEAN_MOTION_DOT = .48E-6
MEAN_MOTION_DDOT = 0

CCSDS_OMM_VERS = 2.0
CREATION_DATE  = 
ORIGINATOR     = 

OBJECT_NAME    = CHUTIAN-2 B
OBJECT_ID      = 2025-256B
CENTER_NAME    = EARTH
REF_FRAME      = TEME
TIME_SYSTEM    = UTC
MEAN_ELEMENT_THEORY = SGP/SGP4

EPOCH          = 2025-11-28T15:21:07.823232
MEAN_MOTION    = 14.50995001
ECCENTRICITY   = .00130446
INCLINATION    = 98.2811
RA_OF_ASC_NODE = 37.6743
ARG_OF_PERICENTER = 225.4089
MEAN_ANOMALY   = 134.6042

EPHEMERIS_TYPE = 0
CLASSIFICATION_TYPE = U
NORAD_CAT_ID   = 66410
ELEMENT_SET_NO = 999
REV_AT_EPOCH   = 283
BSTAR          = .1830127E-3
MEAN_MOTION_DOT = .68E-5
MEAN_MOTION_DDOT = 0

