STARLINK-35657          
1 66399U 25257V   25332.58335648 -.02038446  00000+0 -36451-1 0  9999
2 66399  53.1593 331.4837 0001277  66.3911   3.2264 15.52661265  4227
STARLINK-35667          
1 66400U 25257W   25332.58335648 -.02038002  00000+0 -36440-1 0  9998
2 66400  53.1585 331.4749 0001269  60.7618  12.6882 15.52662375  4229
STARLINK-35668          
1 66401U 25257X   25332.58335648 -.02037344  00000+0 -36428-1 0  9993
2 66401  53.1584 331.4713 0001237  61.2518  14.1150 15.52662065  4221
STARLINK-35644          
1 66402U 25257Y   25332.58335648 -.02042031  00000+0 -36518-1 0  9993
2 66402  53.1587 331.4791 0001237  61.9681   9.5639 15.52664793  4229
STARLINK-35602          
1 66403U 25257Z   25332.58335648 -.02035488  00000+0 -36393-1 0  9993
2 66403  53.1586 331.4674 0001264  61.9478  15.3363 15.52660491  4223
STARLINK-35691          
1 66404U 25257AA  25332.58335648 -.02033848  00000+0 -36360-1 0  9996
2 66404  53.1584 331.4635 0001250  62.9868  16.2132 15.52660488  4228
STARLINK-35683          
1 66405U 25257AB  25332.58335648 -.02035623  00000+0 -36395-1 0  9998
2 66405  53.1585 331.4589 0001252  62.3545  18.7638 15.52660664  4062
STARLINK-34840          
1 66406U 25257AC  25332.58335648 -.02036299  00000+0 -36407-1 0  9993
2 66406  53.1591 331.4468 0001307  62.6579  24.2087 15.52661855  4161
STARLINK-35686          
1 66407U 25257AD  25332.58335648 -.02031936  00000+0 -36322-1 0  9993
2 66407  53.1587 331.4547 0001304  62.4777  20.5560 15.52659452  4222
STARLINK-35679          
1 66408U 25257AE  25332.58335648 -.02037781  00000+0 -36435-1 0  9993
2 66408  53.1589 331.4520 0001252  59.7362  25.2134 15.52663282  4222
CHUTIAN-2 A             
1 66409U 25256A   25332.64773594  .00000048  00000+0  23707-4 0  9999
2 66409  98.2783  37.6588 0013002 221.1597 138.8618 14.49908140  2832
CHUTIAN-2 B             
1 66410U 25256B   25332.63967388  .00000680  00000+0  18301-3 0  9991
2 66410  98.2811  37.6743 0013044 225.4089 134.6042 14.50995001  2837
